[
    {
        "Altitude(m)": 604969.0889969155,
        "Argument of Periapsis(deg)": 0.0,
        "Eccentricity": 0.0,
        "Inclination(deg)": 60.0,
        "Latitude(deg)": -0.09254423551223642,
        "Longitude(deg)": 69.9775276985127,
        "Mean Anomaly(deg)": 0.0,
        "RAAN(deg)": 170.00000000000003,
        "Satellite Name": "Test1 748",
        "Satellite Number": 748,
        "Semi-Major Axis(m)": 6980739.136638005,
        "Time(s)": 0
    },
    {
        "Altitude(m)": 604900.0293085861,
        "Argument of Periapsis(deg)": 0.00010418945913296404,
        "Eccentricity": 0.0,
        "Inclination(deg)": 60.0,
        "Latitude(deg)": 0.44788193268536075,
        "Longitude(deg)": 70.24565018583506,
        "Mean Anomaly(deg)": 0.6201061454618275,
        "RAAN(deg)": 169.99957995086027,
        "Satellite Name": "Test1 748",
        "Satellite Number": 748,
        "Semi-Major Axis(m)": 6980739.136638005,
        "Time(s)": 10
    }
]